EUTELSAT 139 WEST A     
1 28187U 04008A   26007.71318906  .00000103  00000+0  00000+0 0  9990
2 28187   5.4242  73.9506 0001604 257.1379 253.7169  1.00273014 79748
EUTELSAT 174A           
1 28924U 05052A   26008.06046214  .00000012  00000+0  00000+0 0  9997
2 28924   3.8144  78.5393 0006161 213.1341  11.6944  1.00273441 50722
EUTELSAT 33F            
1 29270U 06032A   26008.10388238  .00000159  00000+0  00000+0 0  9993
2 29270   1.2495  84.1227 0003637 205.8982 248.1127  1.00268983 45708
EUTELSAT HOTBIRD 13C    
1 33459U 08065A   26008.08741562 -.00000280  00000+0  00000+0 0  9991
2 33459   2.5402  81.1282 0003216 209.1631 158.4826  1.00273795 45743
EUTELSAT 36B            
1 36101U 09065A   26008.10024962  .00000117  00000+0  00000+0 0  9998
2 36101   0.0905  62.6890 0005608 225.4306 266.1027  1.00271226 59109
EUTELSAT KA-SAT 9A      
1 37258U 10069A   26007.90114126  .00000065  00000+0  00000+0 0  9999
2 37258   0.0498 341.7478 0001680 197.6191 261.5049  1.00269672 42401
EUTELSAT 7 WEST A       
1 37816U 11051A   26008.09590900 -.00000056  00000+0  00000+0 0  9991
2 37816   0.0643 345.6574 0004791 250.8160 258.3926  1.00271913 52272
EUTELSAT 16A            
1 37836U 11057A   26008.02917525  .00000108  00000+0  00000+0 0  9995
2 37836   0.0602  22.9688 0005548 266.2137 204.8860  1.00271492  5729
